HTV-X1                  
1 66174U 25241A   26092.90905287  .00003651  00000+0  12616-3 0  9990
2 66174  51.6370 316.3281 0007263 266.2114  93.8037 15.32509724 24657
SZ-21 MODULE            
1 66515U 25246C   26092.61700061  .00050186  00000+0  39708-3 0  9991
2 66515  41.4746  55.8608 0002779 223.0414 137.0212 15.70483759 21833
SHENZHOU-22             
1 66645U 25272A   26092.83091262  .00032710  00000+0  36780-3 0  9994
2 66645  41.4672  61.1335 0003745 109.1274 250.9971 15.61894032281154
SOYUZ-MS 28             
1 66664U 25275A   26092.84326290  .00011825  00000+0  22447-3 0  9990
2 66664  51.6328 312.9475 0006235 264.7845  95.2432 15.48729122559867
DUPLEX                  
1 66906U 98067XS  26092.91152025  .00046103  00000+0  60952-3 0  9999
2 66906  51.6285 308.1544 0003123 225.6918 134.3819 15.57862975 18905
ISS OBJECT XT           
1 66907U 98067XT  26092.84146166  .00395588  00000+0  20759-2 0  9995
2 66907  51.6224 301.6406 0006925 238.4515 121.5810 15.79069790 18987
ISS OBJECT XU           
1 66908U 98067XU  26092.58367113  .00315777  00000+0  16662-2 0  9994
2 66908  51.6227 302.9152 0007080 236.5684 123.4640 15.79162212 18943
SILVERSAT               
1 66909U 98067XV  26092.58307897  .00490335  00000+0  18699-2 0  9994
2 66909  51.6187 301.3924 0008484 244.3474 115.6654 15.85656241 18969
ISS OBJECT XW           
1 66910U 98067XW  26092.85379717  .00332570  00000+0  19101-2 0  9991
2 66910  51.6203 301.7150 0007255 233.7499 126.2831 15.77220477 18985
ISS OBJECT XX           
1 66911U 98067XX  26092.94054922  .01110416  58672-3  27185-2 0  9997
2 66911  51.6159 297.7328 0010664 251.8408 108.1439 15.95513790 19039
ISS OBJECT XY           
1 66912U 98067XY  26092.57412265  .00137053  00000+0  11570-2 0  9999
2 66912  51.6258 305.8859 0004739 230.4496 129.6082 15.68819733 18897
KNACKSAT-2              
1 67683U 98067XZ  26092.02490752  .00046055  00000+0  70546-3 0  9992
2 67683  51.6312 315.7350 0010357 271.4198  88.5606 15.53816312  8413
